{
  "type": "FeatureCollection",
  "features": [
    {
      "type": "Feature",
      "properties": {
        "norad_id": 19071,
        "name": "OSCAR 32",
        "group": "nnss",
        "lat": -66.32112803424648,
        "lon": 17.234376533862775,
        "alt_km": 1240.8126686698297,
        "timestamp": "2025-12-11T22:43:47.537416+00:00",
        "meta_object_name": "OSCAR 32",
        "meta_object_id": "1988-033B",
        "meta_epoch": "2025-12-11T12:48:53.210880",
        "meta_mean_motion": 13.27953761,
        "meta_eccentricity": 0.018826,
        "meta_inclination": 90.3218,
        "meta_ra_of_asc_node": 16.4872,
        "meta_arg_of_pericenter": 170.1405,
        "meta_mean_anomaly": 307.9312,
        "meta_ephemeris_type": 0,
        "meta_classification_type": "U",
        "meta_norad_cat_id": 19071,
        "meta_element_set_no": 999,
        "meta_rev_at_epoch": 82249,
        "meta_bstar": 0.00014220764,
        "meta_mean_motion_dot": 8e-07,
        "meta_mean_motion_ddot": 0,
        "tle_line1": "1 19071U 88033B   25345.53394920  .00000080  00000+0  14221-3 0  9994",
        "tle_line2": "2 19071  90.3218  16.4872 0188260 170.1405 307.9312 13.27953761822498"
      },
      "geometry": {
        "type": "Point",
        "coordinates": [
          17.234376533862775,
          -66.32112803424648
        ]
      }
    },
    {
      "type": "Feature",
      "properties": {
        "norad_id": 19223,
        "name": "NOVA 2",
        "group": "nnss",
        "lat": 36.15776673774316,
        "lon": -101.73578179924337,
        "alt_km": 1184.1600984726083,
        "timestamp": "2025-12-11T22:43:47.537427+00:00",
        "meta_object_name": "NOVA 2",
        "meta_object_id": "1988-052A",
        "meta_epoch": "2025-12-11T12:59:07.787904",
        "meta_mean_motion": 13.2293577,
        "meta_eccentricity": 0.00306926,
        "meta_inclination": 89.9873,
        "meta_ra_of_asc_node": 78.274,
        "meta_arg_of_pericenter": 20.1827,
        "meta_mean_anomaly": 350.7258,
        "meta_ephemeris_type": 0,
        "meta_classification_type": "U",
        "meta_norad_cat_id": 19223,
        "meta_element_set_no": 999,
        "meta_rev_at_epoch": 80932,
        "meta_bstar": 0.00020734848,
        "meta_mean_motion_dot": 9.6e-07,
        "meta_mean_motion_ddot": 0,
        "tle_line1": "1 19223U 88052A   25345.54106236  .00000096  00000+0  20735-3 0  9990",
        "tle_line2": "2 19223  89.9873  78.2740 0030692  20.1827 350.7258 13.22935770809322"
      },
      "geometry": {
        "type": "Point",
        "coordinates": [
          -101.73578179924337,
          36.15776673774316
        ]
      }
    },
    {
      "type": "Feature",
      "properties": {
        "norad_id": 19419,
        "name": "OSCAR 25",
        "group": "nnss",
        "lat": 17.41461591796897,
        "lon": -159.74732443357624,
        "alt_km": 1094.0011807733263,
        "timestamp": "2025-12-11T22:43:47.537438+00:00",
        "meta_object_name": "OSCAR 25",
        "meta_object_id": "1988-074A",
        "meta_epoch": "2025-12-11T09:26:55.870080",
        "meta_mean_motion": 13.42622997,
        "meta_eccentricity": 0.00943956,
        "meta_inclination": 90.0349,
        "meta_ra_of_asc_node": 20.2398,
        "meta_arg_of_pericenter": 249.7516,
        "meta_mean_anomaly": 120.6748,
        "meta_ephemeris_type": 0,
        "meta_classification_type": "U",
        "meta_norad_cat_id": 19419,
        "meta_element_set_no": 999,
        "meta_rev_at_epoch": 82622,
        "meta_bstar": 0.00023010121,
        "meta_mean_motion_dot": 1.42e-06,
        "meta_mean_motion_ddot": 0,
        "tle_line1": "1 19419U 88074A   25345.39370220  .00000142  00000+0  23010-3 0  9991",
        "tle_line2": "2 19419  90.0349  20.2398 0094395 249.7516 120.6748 13.42622997826222"
      },
      "geometry": {
        "type": "Point",
        "coordinates": [
          -159.74732443357624,
          17.41461591796897
        ]
      }
    },
    {
      "type": "Feature",
      "properties": {
        "norad_id": 19420,
        "name": "OSCAR 31",
        "group": "nnss",
        "lat": 47.63656719277523,
        "lon": 20.55162143275341,
        "alt_km": 1162.530251762405,
        "timestamp": "2025-12-11T22:43:47.537450+00:00",
        "meta_object_name": "OSCAR 31",
        "meta_object_id": "1988-074B",
        "meta_epoch": "2025-12-11T12:24:01.446624",
        "meta_mean_motion": 13.42584413,
        "meta_eccentricity": 0.00926796,
        "meta_inclination": 90.0364,
        "meta_ra_of_asc_node": 20.59,
        "meta_arg_of_pericenter": 243.4849,
        "meta_mean_anomaly": 244.9549,
        "meta_ephemeris_type": 0,
        "meta_classification_type": "U",
        "meta_norad_cat_id": 19420,
        "meta_element_set_no": 999,
        "meta_rev_at_epoch": 82634,
        "meta_bstar": 0.00020011536,
        "meta_mean_motion_dot": 1.24e-06,
        "meta_mean_motion_ddot": 0,
        "tle_line1": "1 19420U 88074B   25345.51668341  .00000124  00000+0  20012-3 0  9990",
        "tle_line2": "2 19420  90.0364  20.5900 0092679 243.4849 244.9549 13.42584413826348"
      },
      "geometry": {
        "type": "Point",
        "coordinates": [
          20.55162143275341,
          47.63656719277523
        ]
      }
    }
  ]
}